GOES 13
1 29155U 06018A   09024.50827325 -.00000083 +00000-0 +10000-3 0 05604
2 29155 000.4267 087.4895 0003838 185.8300 288.9677 01.00270509009810
GOES 13
1 29155U 06018A   09025.26700002 -.00000083  00000-0  10000-3 0  5600
2 29155 000.4286 087.4816 0003846 186.3458 202.3467 01.00270522  9826
GOES 13
1 29155U 06018A   09026.52914793 -.00000083  00000-0  10000-3 0  5615
2 29155 000.4325 087.4477 0003778 187.0409 297.3004 01.00270623  9835
GOES 13
1 29155U 06018A   09026.52914793 -.00000082 +00000-0 +10000-3 0 05625
2 29155 000.4325 087.4477 0003778 187.0409 297.3004 01.00270623009835
GOES 13
1 29155U 06018A   09027.44548351 -.00000082 +00000-0 +10000-3 0 05620
2 29155 000.4347 087.4350 0003767 187.1588 267.9769 01.00270651009849
GOES 13
1 29155U 06018A   09028.34266622 -.00000081  00000-0  10000-3 0  5627
2 29155 000.4362 087.4440 0003830 186.7930 232.1985 01.00270571  9859
GOES 13
1 29155U 06018A   09029.50348507 -.00000079  00000-0  10000-3 0  5637
2 29155 000.4407 087.3923 0003459 193.8904 284.1953 01.00271022  9866
GOES 13
1 29155U 06018A   09030.51949957 -.00000078  00000-0  10000-3 0  5646
2 29155 000.4431 087.3902 0003457 194.4203 290.4311 01.00271019  9872
GOES 13
1 29155U 06018A   09031.23746977 -.00000077 +00000-0 +10000-3 0 05653
2 29155 000.4449 087.3849 0003455 194.4838 189.5479 01.00271012009880
GOES 13
1 29155U 06018A   09031.53656897 -.00000077  00000-0  10000-3 0  5657
2 29155 000.4456 087.3782 0003454 194.6783 297.3298 01.00271011  9880
GOES 13
1 29155U 06018A   09032.52330779 -.00000078 +00000-0 +10000-3 0 05667
2 29155 000.4480 087.3619 0003456 194.2627 293.9567 01.00270974009890
GOES 13
1 29155U 06018A   09033.38511056 -.00000080  00000-0  10000-3 0  5664
2 29155 000.4502 087.3437 0003455 193.6413 245.6903 01.00270919  9907
GOES 13
1 29155U 06018A   09034.06314197 -.00000081 +00000-0 +10000-3 0 05679
2 29155 000.4518 087.3337 0003439 193.9006 130.1975 01.00270890009912
GOES 13
1 29155U 06018A   09037.47086478 -.00000096  00000-0  10000-3 0  5671
2 29155 000.4607 087.2941 0003763 195.3303 278.9131 01.00269956  9946
GOES 13
1 29155U 06018A   09040.34148815 -.00000104  00000-0  10000-3 0  5686
2 29155 000.4689 087.1711 0003782 197.7795 232.8173 01.00269699  9974
GOES 13
1 29155U 06018A   09041.09650106 -.00000104 +00000-0 +10000-3 0 05691
2 29155 000.4706 087.1768 0003761 198.1964 144.9373 01.00269678009989
GOES 13
1 29155U 06018A   09042.30000000 -.00000105  00000-0  00000+0 0  5694
2 29155 000.4350 256.4720 0003137 342.1890 266.6240 01.00265248  9994
GOES 13
1 29155U 06018A   09045.37266806 -.00000099  00000-0  00000+0 0  5706
2 29155 000.4460 257.8635 0003588 349.6753 286.8830 01.00270383 10027
GOES 13
1 29155U 06018A   09048.53639299 -.00000095  00000-0  00000+0 0  5714
2 29155 000.4385 257.6758 0003436 350.9787 347.8039 01.00270057 10051
GOES 13
1 29155U 06018A   09049.51365971 -.00000095 +00000-0 +00000-0 0 05728
2 29155 000.4365 257.5563 0003388 351.5861 340.0890 01.00270021010060
GOES 13
1 29155U 06018A   09050.34910166 -.00000095  00000-0  00000+0 0  5722
2 29155 000.4347 257.4944 0003341 351.6893 281.6258 01.00270063 10072
GOES 13
1 29155U 06018A   09051.21852828 -.00000095 +00000-0 +00000-0 0 05731
2 29155 000.4328 257.4459 0003332 351.6484 235.5603 01.00270055010082
GOES 13
1 29155U 06018A   09052.20738536 -.00000095  00000-0  00000+0 0  5739
2 29155 000.4305 257.3807 0003284 351.6552 232.5760 01.00270060 10093
GOES 13
1 29155U 06018A   09052.36133109 -.00000095 +00000-0 +00000-0 0 05743
2 29155 000.4302 257.3807 0003270 351.6026 288.2005 01.00270095010099
GOES 13
1 29155U 06018A   09053.52653324 -.00000095  00000-0  00000+0 0  5747
2 29155 000.4274 257.3114 0003239 351.7295 348.7564 01.00270061 10109
GOES 13
1 29155U 06018A   09054.31151921 -.00000094 +00000-0 +00000-0 0 05752
2 29155 000.4258 257.2733 0003231 351.6222 272.2655 01.00270048010116
GOES 13
1 29155U 06018A   09054.57107620 -.00000094  00000-0  00000+0 0  5756
2 29155 000.4249 257.3162 0003135 351.9876 005.5513 01.00270044 10110
GOES 13
1 29155U 06018A   09056.47158837 -.00000091  00000-0  00000+0 0  5761
2 29155 000.4209 257.1657 0003062 352.3540 331.3793 01.00269993 10138
GOES 13
1 29155U 06018A   09057.34890921 -.00000089 +00000-0 +00000-0 0 05774
2 29155 000.4189 257.1230 0003065 351.8388 288.6305 01.00269944010149
GOES 13
1 29155U 06018A   09058.46717182 -.00000088  00000-0  00000+0 0  5773
2 29155 000.4162 257.0894 0003079 352.3400 331.8309 01.00269890 10157
GOES 13
1 29155U 06018A   09059.33231380 -.00000087 +00000-0 +00000-0 0 05782
2 29155 000.4143 257.0622 0003103 351.8250 284.6696 01.00269838010167
GOES 13
1 29155U 06018A   09060.14808233 -.00000088  00000-0  00000+0 0  5780
2 29155 000.4123 257.0412 0003096 351.5975 219.3920 01.00269805 10174
GOES 13
1 29155U 06018A   09061.24433428 -.00000090  00000-0  00000+0 0  5796
2 29155 000.4097 257.0036 0003121 350.6846 256.0636 01.00269735 10187
GOES 13
1 29155U 06018A   09062.09802148 -.00000093 +00000-0 +00000-0 0 05805
2 29155 000.4077 256.9568 0003114 350.5364 204.4194 01.00269692010198
GOES 13
1 29155U 06018A   09063.41395799 -.00000098  00000-0  00000+0 0  5805
2 29155 000.4051 256.5206 0002766 351.6666 318.7334 01.00268959 10206
GOES 13
1 29155U 06018A   09064.35591994 -.00000103 +00000-0 +00000-0 0 05813
2 29155 000.4026 256.4861 0002811 352.4371 298.0215 01.00268892010212
GOES 13
1 29155U 06018A   09065.31797063 -.00000107  00000-0  00000+0 0  5818
2 29155 000.4000 256.4391 0002805 352.2163 285.5647 01.00268833 10228
GOES 13
1 29155U 06018A   09066.24775619 -.00000110 +00000-0 +00000-0 0 05831
2 29155 000.3976 256.3706 0002664 353.4348 260.0410 01.00268759010233
GOES 13
1 29155U 06018A   09067.27400370 -.00000112  00000-0  00000+0 0  5824
2 29155 000.3949 256.3278 0002662 352.8735 271.0935 01.00268714 10244
GOES 13
1 29155U 06018A   09069.20904317 -.00000112  00000-0  00000+0 0  5830
2 29155 000.3902 256.2908 0002662 352.7458 249.7581 01.00268692 10269
GOES 13
1 29155U 06018A   09070.24525002 -.00000109  00000-0  00000+0 0  5843
2 29155 000.3877 256.2690 0002692 352.6456 263.9241 01.00268668 10273
GOES 13
1 29155U 06018A   09071.13039041 -.00000107 +00000-0 +00000-0 0 05855
2 29155 000.3856 256.2519 0002691 352.6659 223.4341 01.00268663010282
GOES 13
1 29155U 06018A   09071.44064197 -.00000106  00000-0  00000+0 0  5857
2 29155 000.3846 256.1856 0002674 352.8897 335.2690 01.00268654 10280
GOES 13
1 29155U 06018A   09072.74891765 -.00000103  00000-0  00000+0 0  5868
2 29155 000.3814 256.1179 0002579 352.6498 087.8300 01.00268645 10291
GOES 13
1 29155U 06018A   09073.55726058 -.00000101 +00000-0 +00000-0 0 05870
2 29155 000.3793 256.0330 0002503 353.3647 018.9901 01.00268632010306
GOES 13
1 29155U 06018A   09074.37582411 -.00000100  00000-0  00000+0 0  5872
2 29155 000.3771 255.9683 0002503 353.3437 314.5570 01.00268645 10310
GOES 13
1 29155U 06018A   09075.09373449 -.00000099 +00000-0 +00000-0 0 05880
2 29155 000.3757 255.9360 0002426 353.7715 213.3082 01.00268641010324
GOES 13
1 29155U 06018A   09075.45192201 -.00000099  00000-0  00000+0 0  5884
2 29155 000.3746 255.8936 0002428 353.6242 342.7951 01.00268651 10329
GOES 13
1 29155U 06018A   09076.35096641 -.00000098 +00000-0 +00000-0 0 05896
2 29155 000.3722 255.8420 0002486 353.5963 307.4089 01.00268680010337
GOES 13
1 29155U 06018A   09077.13816508 -.00000098  00000-0  00000+0 0  5894
2 29155 000.3704 255.8104 0002462 354.1199 231.0764 01.00268693 10345
GOES 13
1 29155U 06018A   09078.33238366 -.00000098  00000-0  00000+0 0  5909
2 29155 000.3677 255.7703 0002335 354.7186 301.6009 01.00268713 10359
GOES 13
1 29155U 06018A   09079.39532948 -.00000098  00000-0  00000+0 0  5910
2 29155 000.3651 255.7452 0002119 355.7816 324.2595 01.00268736 10360
GOES 13
1 29155U 06018A   09080.49028421 -.00000097  00000-0  00000+0 0  5929
2 29155 000.3624 255.6969 0002079 355.7517 359.5903 01.00268761 10378
GOES 13
1 29155U 06018A   09081.45121446 -.00000095 +00000-0 +00000-0 0 05937
2 29155 000.3601 255.6256 0002052 355.7645 346.5216 01.00268778010387
GOES 13
1 29155U 06018A   09082.11568065 -.00000094  00000-0  00000+0 0  5931
2 29155 000.3586 255.5979 0002047 356.0064 226.1634 01.00268781 10395
GOES 13
1 29155U 06018A   09083.21686005 -.00000092  00000-0  00000+0 0  5947
2 29155 000.3559 255.5623 0002039 355.6022 264.1017 01.00268784 10403
GOES 13
1 29155U 06018A   09084.37597105 -.00000090  00000-0  00000+0 0  5956
2 29155 000.3529 255.4395 0002031 354.7770 323.4618 01.00268807 10410
GOES 13
1 29155U 06018A   09085.14212049 -.00000088 +00000-0 +00000-0 0 05962
2 29155 000.3513 255.3467 0002021 354.8478 240.0446 01.00268806010420
GOES 13
1 29155U 06018A   09086.69087795 -.00000087  00000-0  00000+0 0  5969
2 29155 000.3474 255.1643 0001968 354.1224 080.0155 01.00268815 10431
GOES 13
1 29155U 06018A   09087.37126560 -.00000087 +00000-0 +00000-0 0 05971
2 29155 000.3460 255.0612 0001942 353.7270 326.1165 01.00268813010443
GOES 13
1 29155U 06018A   09088.24900890 -.00000088  00000-0  00000+0 0  5974
2 29155 000.3440 255.0239 0001976 353.5266 283.1974 01.00268804 10457
GOES 13
1 29155U 06018A   09089.19770016 -.00000090 +00000-0 +00000-0 0 05989
2 29155 000.3416 254.9088 0001949 354.0632 265.2294 01.00268805010461
GOES 13
1 29155U 06018A   09090.25524466 -.00000094  00000-0  00000+0 0  5987
2 29155 000.3389 254.8199 0001965 354.2526 286.8756 01.00268803 10475
GOES 13
1 29155U 06018A   09093.25703361 -.00000107  00000-0  00000+0 0  5999
2 29155 000.3317 254.7796 0001965 354.3390 290.4005 01.00268798 10503
GOES 13
1 29155U 06018A   09096.36427384 -.00000108  00000-0  00000+0 0  6006
2 29155 000.3231 252.9246 0001703 351.1116 337.0820 01.00267727 10536
GOES 13
1 29155U 06018A   09097.46292057 -.00000106  00000-0  00000+0 0  6014
2 29155 000.3203 252.8010 0001649 350.2955 014.6009 01.00267721 10545
GOES 13
1 29155U 06018A   09098.22143359 -.00000103 +00000-0 +00000-0 0 06028
2 29155 000.3184 252.7595 0001600 349.0346 289.7044 01.00267731010553
